COSMOS 2426 (717)       
1 29671U 06062B   19319.17861872  .00000018  00000-0  10000-3 0  9995
2 29671  65.0535 275.1857 0020531 178.6686 267.4335  2.12961967100317
COSMOS 2433 (720)       
1 32275U 07052A   19318.49000363 -.00000042  00000-0  10000-3 0  9991
2 32275  65.9084  36.1192 0004199 229.2695  78.8463  2.13104441 93809
COSMOS 2432 (719)       
1 32276U 07052B   19318.58315169 -.00000042  00000-0  10000-3 0  9995
2 32276  65.9234  36.2062 0009174 321.8812   8.4093  2.13103624 93802
COSMOS 2434 (721)       
1 32393U 07065A   19318.28602466  .00000012  00000-0  00000+0 0  9996
2 32393  64.6596 273.8371 0001302 135.1515 263.8903  2.13103025 92511
COSMOS 2436 (723)       
1 32395U 07065C   19319.18003660  .00000018  00000-0  10000-3 0  9990
2 32395  64.6686 273.8589 0014915 331.3481 117.2909  2.13280862 92467
COSMOS 2456 (730)       
1 36111U 09070A   19319.18204397  .00000093  00000-0  00000+0 0  9996
2 36111  64.2049 153.4605 0002714 349.7414 190.0086  2.13102969 77190
COSMOS 2457 (733)       
1 36112U 09070B   19318.73588419  .00000094  00000-0  00000+0 0  9998
2 36112  64.1914 153.3737 0006583 148.5125 173.2694  2.13101573 77185
COSMOS 2459 (731)       
1 36400U 10007A   19318.27007396 -.00000043  00000-0  10000-3 0  9999
2 36400  65.8131  35.1281 0023924 348.7136   5.4481  2.13102021 75524
COSMOS 2461 (735)       
1 36401U 10007B   19319.39224899 -.00000042  00000-0  10000-3 0  9992
2 36401  65.8063  35.0610 0005796  75.7755 329.7819  2.13101886 75553
COSMOS 2460 (732)       
1 36402U 10007C   19319.15514834 -.00000042  00000-0  10000-3 0  9998
2 36402  65.7971  35.0314 0001928 195.4708  67.7461  2.13101406 75542
COSMOS 2464 (736)       
1 37139U 10041C   19319.53087021  .00000019  00000-0  00000+0 0  9997
2 37139  64.2601 273.3427 0025057   6.4068 132.8188  2.13100691 71625
COSMOS 2474 (742)       
1 37829U 11055A   19318.48728257  .00000095  00000-0  00000+0 0  9999
2 37829  64.5299 154.4191 0008002 241.5412 340.9216  2.13101905 63174
COSMOS 2476 (744)       
1 37867U 11064A   19319.10218394  .00000093  00000-0  00000+0 0  9995
2 37867  64.5073 154.4474 0017447 234.2536 146.1242  2.13101941 62544
COSMOS 2477 (745)       
1 37868U 11064B   19318.76792929  .00000094  00000-0  00000+0 0  9999
2 37868  64.5172 154.5108 0015059 234.7684  67.7975  2.13101810 62485
COSMOS 2475 (743)       
1 37869U 11064C   19317.51490554  .00000099  00000-0  00000+0 0  9996
2 37869  64.5225 154.5539 0018721 261.5291 117.0047  2.13102096 62479
COSMOS 2485 (747)       
1 39155U 13019A   19318.35140075  .00000096  00000-0  00000+0 0  9998
2 39155  64.6776 154.6942 0018064 229.3536 339.7296  2.13102010 50993
COSMOS 2492 (754)       
1 39620U 14012A   19318.46916106 -.00000043  00000-0  10000-3 0  9995
2 39620  65.6868  34.8666 0012547 319.6169  14.8884  2.13103327 43943
COSMOS 2500 (755)       
1 40001U 14032A   19318.26691726 -.00000044  00000-0  00000+0 0  9994
2 40001  65.6265  34.8063 0008192 203.0828 197.3280  2.13102482 42160
COSMOS 2501 (702K)      
1 40315U 14075A   19318.62707758  .00000013  00000-0  00000+0 0  9997
2 40315  63.9798 274.3967 0017054 212.0022 261.4334  2.13098515 38571
COSMOS 2514 (751)       
1 41330U 16008A   19318.91799453 -.00000043  00000-0  00000+0 0  9992
2 41330  65.4307  34.7087 0011572 212.0519 149.8431  2.13102990 29348
COSMOS 2516 (753)       
1 41554U 16032A   19319.36525265  .00000018  00000-0  00000+0 0  9996
2 41554  64.2014 274.3819 0014147 225.3374  10.2845  2.13101731 26956
COSMOS 2522 (752)       
1 42939U 17055A   19319.08411752  .00000016  00000-0  00000+0 0  9992
2 42939  64.4348 274.5098 0009566 251.2093 355.2558  2.13102048 16709
COSMOS 2527 (756)       
1 43508U 18053A   19319.43654640  .00000093  00000-0  00000+0 0  9993
2 43508  64.8369 154.4609 0005812 216.6623 331.6732  2.13102650 11006
COSMOS 2529 (757)       
1 43687U 18086A   19318.42154653  .00000012  00000-0  00000+0 0  9995
2 43687  64.6481 274.5934 0012147 270.7584 143.0755  2.13102045  8002
COSMOS 2534 (758)       
1 44299U 19030A   19319.42216014  .00000019  00000-0  00000+0 0  9993
2 44299  64.7172 274.3558 0015180 286.7459 309.8837  2.13101927  3666
